{"type":"FeatureCollection","crs":{"type":"name","properties":{"name":"urn:ogc:def:crs:EPSG::2154"}},"features":[{"type":"Feature","geometry":{"type":"Point","coordinates":[2.5,13.0,1.6]},"properties":{"IDRECEIVER":32,"PERIOD":"D","LW63":55.417793,"LW500":55.39227,"LW1000":55.37287,"LW8000":54.36362,"LAEQ":58.59192,"LEQ":61.179283}},{"type":"Feature","geometry":{"type":"Point","coordinates":[2.5,13.0,1.6]},"properties":{"IDRECEIVER":32,"PERIOD":"DEN","LW63":52.407494,"LW500":52.381966,"LW1000":52.36257,"LW8000":51.35332,"LAEQ":55.58162,"LEQ":58.168983}},{"type":"Feature","geometry":{"type":"Point","coordinates":[13.5,6.0,1.6]},"properties":{"IDRECEIVER":4,"PERIOD":"D","LW63":63.06439,"LW500":63.051952,"LW1000":63.042503,"LW8000":62.554924,"LAEQ":66.418884,"LEQ":68.9543}},{"type":"Feature","geometry":{"type":"Point","coordinates":[13.5,6.0,1.6]},"properties":{"IDRECEIVER":4,"PERIOD":"DEN","LW63":60.05409,"LW500":60.041653,"LW1000":60.0322,"LW8000":59.544624,"LAEQ":63.408585,"LEQ":65.944}},{"type":"Feature","geometry":{"type":"Point","coordinates":[12.0,5.0,1.6]},"properties":{"IDRECEIVER":7,"PERIOD":"D","LW63":66.68198,"LW500":66.67527,"LW1000":66.67017,"LW8000":66.4077,"LAEQ":70.11865,"LEQ":72.63091}},{"type":"Feature","geometry":{"type":"Point","coordinates":[12.0,5.0,1.6]},"properties":{"IDRECEIVER":7,"PERIOD":"DEN","LW63":63.67168,"LW500":63.664967,"LW1000":63.65987,"LW8000":63.397396,"LAEQ":67.10835,"LEQ":69.62061}},{"type":"Feature","geometry":{"type":"Point","coordinates":[13.5,2.5,1.6]},"properties":{"IDRECEIVER":29,"PERIOD":"D","LW63":61.291504,"LW500":61.277496,"LW1000":61.266853,"LW8000":60.716858,"LAEQ":64.623695,"LEQ":67.16545}},{"type":"Feature","geometry":{"type":"Point","coordinates":[13.5,2.5,1.6]},"properties":{"IDRECEIVER":29,"PERIOD":"DEN","LW63":58.281204,"LW500":58.267197,"LW1000":58.256554,"LW8000":57.70656,"LAEQ":61.613396,"LEQ":64.15515}},{"type":"Feature","geometry":{"type":"Point","coordinates":[7.0,5.0,1.6]},"properties":{"IDRECEIVER":22,"PERIOD":"D","LW63":57.63252,"LW500":56.894516,"LW1000":56.8608,"LW8000":56.346985,"LAEQ":60.23511,"LEQ":62.97875}},{"type":"Feature","geometry":{"type":"Point","coordinates":[7.0,5.0,1.6]},"properties":{"IDRECEIVER":22,"PERIOD":"DEN","LW63":54.62222,"LW500":53.884216,"LW1000":53.850502,"LW8000":53.336685,"LAEQ":57.22481,"LEQ":59.96845}},{"type":"Feature","geometry":{"type":"Point","coordinates":[9.5,2.5,1.6]},"properties":{"IDRECEIVER":30,"PERIOD":"D","LW63":65.152626,"LW500":64.92979,"LW1000":64.88409,"LW8000":64.90339,"LAEQ":68.43659,"LEQ":70.98943}},{"type":"Feature","geometry":{"type":"Point","coordinates":[9.5,2.5,1.6]},"properties":{"IDRECEIVER":30,"PERIOD":"DEN","LW63":62.142323,"LW500":61.91949,"LW1000":61.873787,"LW8000":61.89309,"LAEQ":65.42629,"LEQ":67.97913}},{"type":"Feature","geometry":{"type":"Point","coordinates":[9.0,3.2679491924311224,1.6]},"properties":{"IDRECEIVER":28,"PERIOD":"D","LW63":66.940765,"LW500":66.78285,"LW1000":66.764366,"LW8000":66.97816,"LAEQ":70.378975,"LEQ":72.88815}},{"type":"Feature","geometry":{"type":"Point","coordinates":[9.0,3.2679491924311224,1.6]},"properties":{"IDRECEIVER":28,"PERIOD":"DEN","LW63":63.930466,"LW500":63.772552,"LW1000":63.75407,"LW8000":63.967857,"LAEQ":67.368675,"LEQ":69.87785}},{"type":"Feature","geometry":{"type":"Point","coordinates":[13.5,13.0,1.6]},"properties":{"IDRECEIVER":5,"PERIOD":"D","LW63":-99.0,"LW500":-99.0,"LW1000":-99.0,"LW8000":-99.0,"LAEQ":-95.46415,"LEQ":-92.9794}},{"type":"Feature","geometry":{"type":"Point","coordinates":[13.5,13.0,1.6]},"properties":{"IDRECEIVER":5,"PERIOD":"DEN","LW63":-99.0,"LW500":-99.0,"LW1000":-99.0,"LW8000":-99.0,"LAEQ":-95.46415,"LEQ":-92.9794}},{"type":"Feature","geometry":{"type":"Point","coordinates":[5.999999999999998,6.7320508075688785,1.6]},"properties":{"IDRECEIVER":9,"PERIOD":"D","LW63":57.389385,"LW500":56.862442,"LW1000":56.82054,"LW8000":56.2956,"LAEQ":60.192886,"LEQ":62.879826}},{"type":"Feature","geometry":{"type":"Point","coordinates":[5.999999999999998,6.7320508075688785,1.6]},"properties":{"IDRECEIVER":9,"PERIOD":"DEN","LW63":54.379086,"LW500":53.852142,"LW1000":53.81024,"LW8000":53.2853,"LAEQ":57.182587,"LEQ":59.869526}},{"type":"Feature","geometry":{"type":"Point","coordinates":[8.267949192431121,5.999999999999999,1.6]},"properties":{"IDRECEIVER":3,"PERIOD":"D","LW63":67.30923,"LW500":67.16171,"LW1000":67.189026,"LW8000":67.64083,"LAEQ":70.88016,"LEQ":73.35003}},{"type":"Feature","geometry":{"type":"Point","coordinates":[8.267949192431121,5.999999999999999,1.6]},"properties":{"IDRECEIVER":3,"PERIOD":"DEN","LW63":64.29893,"LW500":64.15141,"LW1000":64.17873,"LW8000":64.63053,"LAEQ":67.86986,"LEQ":70.33973}},{"type":"Feature","geometry":{"type":"Point","coordinates":[11.732050807568877,4.0,1.6]},"properties":{"IDRECEIVER":15,"PERIOD":"D","LW63":66.65118,"LW500":66.57916,"LW1000":66.55308,"LW8000":66.2547,"LAEQ":69.99439,"LEQ":72.53274}},{"type":"Feature","geometry":{"type":"Point","coordinates":[2.5,2.5,1.6]},"properties":{"IDRECEIVER":13,"PERIOD":"D","LW63":-99.0,"LW500":-99.0,"LW1000":-99.0,"LW8000":-99.0,"LAEQ":-95.46415,"LEQ":-92.9794}},{"type":"Feature","geometry":{"type":"Point","coordinates":[11.732050807568877,4.0,1.6]},"properties":{"IDRECEIVER":15,"PERIOD":"DEN","LW63":63.64088,"LW500":63.568863,"LW1000":63.54278,"LW8000":63.244396,"LAEQ":66.98409,"LEQ":69.52244}},{"type":"Feature","geometry":{"type":"Point","coordinates":[2.5,2.5,1.6]},"properties":{"IDRECEIVER":13,"PERIOD":"DEN","LW63":-99.0,"LW500":-99.0,"LW1000":-99.0,"LW8000":-99.0,"LAEQ":-95.46415,"LEQ":-92.9794}},{"type":"Feature","geometry":{"type":"Point","coordinates":[3.0,5.0,1.6]},"properties":{"IDRECEIVER":23,"PERIOD":"D","LW63":57.067116,"LW500":56.81336,"LW1000":56.7867,"LW8000":56.267765,"LAEQ":60.15721,"LEQ":62.7639}},{"type":"Feature","geometry":{"type":"Point","coordinates":[3.0,5.0,1.6]},"properties":{"IDRECEIVER":23,"PERIOD":"DEN","LW63":54.056816,"LW500":53.80306,"LW1000":53.776398,"LW8000":53.257465,"LAEQ":57.14691,"LEQ":59.7536}},{"type":"Feature","geometry":{"type":"Point","coordinates":[9.5,6.0,1.6]},"properties":{"IDRECEIVER":10,"PERIOD":"D","LW63":70.88793,"LW500":70.82456,"LW1000":70.81466,"LW8000":70.86258,"LAEQ":74.36922,"LEQ":76.86813}},{"type":"Feature","geometry":{"type":"Point","coordinates":[9.5,6.0,1.6]},"properties":{"IDRECEIVER":10,"PERIOD":"DEN","LW63":67.87763,"LW500":67.81426,"LW1000":67.80436,"LW8000":67.85228,"LAEQ":71.35892,"LEQ":73.857834}},{"type":"Feature","geometry":{"type":"Point","coordinates":[8.0,5.0,1.6]},"properties":{"IDRECEIVER":2,"PERIOD":"D","LW63":67.574036,"LW500":67.4418,"LW1000":67.49687,"LW8000":68.02762,"LAEQ":71.2116,"LEQ":73.66196}},{"type":"Feature","geometry":{"type":"Point","coordinates":[8.0,5.0,1.6]},"properties":{"IDRECEIVER":2,"PERIOD":"DEN","LW63":64.563736,"LW500":64.4315,"LW1000":64.48657,"LW8000":65.01732,"LAEQ":68.2013,"LEQ":70.65166}},{"type":"Feature","geometry":{"type":"Point","coordinates":[9.0,6.732050807568877,1.6]},"properties":{"IDRECEIVER":8,"PERIOD":"D","LW63":66.940765,"LW500":66.78285,"LW1000":66.764366,"LW8000":66.97816,"LAEQ":70.378975,"LEQ":72.88815}},{"type":"Feature","geometry":{"type":"Point","coordinates":[9.0,6.732050807568877,1.6]},"properties":{"IDRECEIVER":8,"PERIOD":"DEN","LW63":63.930466,"LW500":63.772552,"LW1000":63.75407,"LW8000":63.967857,"LAEQ":67.368675,"LEQ":69.87785}},{"type":"Feature","geometry":{"type":"Point","coordinates":[3.2679491924311224,5.999999999999999,1.6]},"properties":{"IDRECEIVER":11,"PERIOD":"D","LW63":57.078228,"LW500":56.814804,"LW1000":56.787422,"LW8000":56.26865,"LAEQ":60.158157,"LEQ":62.767647}},{"type":"Feature","geometry":{"type":"Point","coordinates":[3.2679491924311224,5.999999999999999,1.6]},"properties":{"IDRECEIVER":11,"PERIOD":"DEN","LW63":54.06793,"LW500":53.804504,"LW1000":53.777122,"LW8000":53.25835,"LAEQ":57.147858,"LEQ":59.757347}},{"type":"Feature","geometry":{"type":"Point","coordinates":[8.0,9.5,1.6]},"properties":{"IDRECEIVER":1,"PERIOD":"D","LW63":60.864864,"LW500":60.162712,"LW1000":59.95624,"LW8000":59.49512,"LAEQ":63.386276,"LEQ":66.1687}},{"type":"Feature","geometry":{"type":"Point","coordinates":[8.0,9.5,1.6]},"properties":{"IDRECEIVER":1,"PERIOD":"DEN","LW63":57.854565,"LW500":57.152412,"LW1000":56.945942,"LW8000":56.48482,"LAEQ":60.375977,"LEQ":63.1584}},{"type":"Feature","geometry":{"type":"Point","coordinates":[10.0,3.0,1.6]},"properties":{"IDRECEIVER":31,"PERIOD":"D","LW63":66.8869,"LW500":66.74345,"LW1000":66.70562,"LW8000":66.62691,"LAEQ":70.222855,"LEQ":72.762344}},{"type":"Feature","geometry":{"type":"Point","coordinates":[10.0,3.0,1.6]},"properties":{"IDRECEIVER":31,"PERIOD":"DEN","LW63":63.876602,"LW500":63.733143,"LW1000":63.695324,"LW8000":63.616604,"LAEQ":67.212555,"LEQ":69.752045}},{"type":"Feature","geometry":{"type":"Point","coordinates":[5.0,3.0,1.6]},"properties":{"IDRECEIVER":25,"PERIOD":"D","LW63":57.230747,"LW500":56.840015,"LW1000":56.80293,"LW8000":56.27965,"LAEQ":60.174553,"LEQ":62.821995}},{"type":"Feature","geometry":{"type":"Point","coordinates":[10.999999999999998,6.7320508075688785,1.6]},"properties":{"IDRECEIVER":0,"PERIOD":"D","LW63":67.205,"LW500":67.09215,"LW1000":67.057526,"LW8000":66.837585,"LAEQ":70.52664,"LEQ":73.070694}},{"type":"Feature","geometry":{"type":"Point","coordinates":[5.0,3.0,1.6]},"properties":{"IDRECEIVER":25,"PERIOD":"DEN","LW63":54.220448,"LW500":53.829716,"LW1000":53.79263,"LW8000":53.269352,"LAEQ":57.164253,"LEQ":59.811695}},{"type":"Feature","geometry":{"type":"Point","coordinates":[3.999999999999999,6.732050807568877,1.6]},"properties":{"IDRECEIVER":21,"PERIOD":"D","LW63":57.115215,"LW500":56.819595,"LW1000":56.79003,"LW8000":56.27176,"LAEQ":60.16145,"LEQ":62.780224}},{"type":"Feature","geometry":{"type":"Point","coordinates":[10.999999999999998,6.7320508075688785,1.6]},"properties":{"IDRECEIVER":0,"PERIOD":"DEN","LW63":64.1947,"LW500":64.08185,"LW1000":64.047226,"LW8000":63.827286,"LAEQ":67.51634,"LEQ":70.060394}},{"type":"Feature","geometry":{"type":"Point","coordinates":[3.999999999999999,6.732050807568877,1.6]},"properties":{"IDRECEIVER":21,"PERIOD":"DEN","LW63":54.104916,"LW500":53.809296,"LW1000":53.77973,"LW8000":53.26146,"LAEQ":57.15115,"LEQ":59.769924}},{"type":"Feature","geometry":{"type":"Point","coordinates":[6.732050807568877,6.000000000000001,1.6]},"properties":{"IDRECEIVER":19,"PERIOD":"D","LW63":57.567017,"LW500":56.87859,"LW1000":56.841515,"LW8000":56.324226,"LAEQ":60.21541,"LEQ":62.946095}},{"type":"Feature","geometry":{"type":"Point","coordinates":[6.732050807568877,6.000000000000001,1.6]},"properties":{"IDRECEIVER":19,"PERIOD":"DEN","LW63":54.556717,"LW500":53.868286,"LW1000":53.831215,"LW8000":53.313927,"LAEQ":57.20511,"LEQ":59.935795}},{"type":"Feature","geometry":{"type":"Point","coordinates":[6.0,3.267949192431123,1.6]},"properties":{"IDRECEIVER":12,"PERIOD":"D","LW63":57.347347,"LW500":56.85985,"LW1000":56.81934,"LW8000":56.295486,"LAEQ":60.19167,"LEQ":62.86702}},{"type":"Feature","geometry":{"type":"Point","coordinates":[6.0,3.267949192431123,1.6]},"properties":{"IDRECEIVER":12,"PERIOD":"DEN","LW63":54.337048,"LW500":53.849552,"LW1000":53.80904,"LW8000":53.285187,"LAEQ":57.18137,"LEQ":59.85672}},{"type":"Feature","geometry":{"type":"Point","coordinates":[8.0,13.0,1.6]},"properties":{"IDRECEIVER":17,"PERIOD":"D","LW63":56.88332,"LW500":56.86165,"LW1000":56.84518,"LW8000":55.9869,"LAEQ":60.108368,"LEQ":62.680904}},{"type":"Feature","geometry":{"type":"Point","coordinates":[8.0,13.0,1.6]},"properties":{"IDRECEIVER":17,"PERIOD":"DEN","LW63":53.87302,"LW500":53.85135,"LW1000":53.83488,"LW8000":52.9766,"LAEQ":57.09807,"LEQ":59.670605}},{"type":"Feature","geometry":{"type":"Point","coordinates":[2.5,9.5,1.6]},"properties":{"IDRECEIVER":6,"PERIOD":"D","LW63":56.29204,"LW500":53.39083,"LW1000":52.595318,"LW8000":55.619766,"LAEQ":57.561882,"LEQ":60.757736}},{"type":"Feature","geometry":{"type":"Point","coordinates":[2.5,9.5,1.6]},"properties":{"IDRECEIVER":6,"PERIOD":"DEN","LW63":53.28174,"LW500":50.38053,"LW1000":49.58502,"LW8000":52.609467,"LAEQ":54.551582,"LEQ":57.747437}},{"type":"Feature","geometry":{"type":"Point","coordinates":[3.2679491924311233,3.999999999999999,1.6]},"properties":{"IDRECEIVER":18,"PERIOD":"D","LW63":57.078228,"LW500":56.814804,"LW1000":56.787422,"LW8000":56.26865,"LAEQ":60.158157,"LEQ":62.767647}},{"type":"Feature","geometry":{"type":"Point","coordinates":[3.2679491924311233,3.999999999999999,1.6]},"properties":{"IDRECEIVER":18,"PERIOD":"DEN","LW63":54.06793,"LW500":53.804504,"LW1000":53.777122,"LW8000":53.25835,"LAEQ":57.147858,"LEQ":59.757347}},{"type":"Feature","geometry":{"type":"Point","coordinates":[11.732050807568877,6.000000000000001,1.6]},"properties":{"IDRECEIVER":27,"PERIOD":"D","LW63":66.86485,"LW500":66.79599,"LW1000":66.77092,"LW8000":66.47329,"LAEQ":70.21226,"LEQ":72.74943}},{"type":"Feature","geometry":{"type":"Point","coordinates":[11.732050807568877,6.000000000000001,1.6]},"properties":{"IDRECEIVER":27,"PERIOD":"DEN","LW63":63.854557,"LW500":63.785686,"LW1000":63.76062,"LW8000":63.462986,"LAEQ":67.20196,"LEQ":69.73913}},{"type":"Feature","geometry":{"type":"Point","coordinates":[5.0,7.0,1.6]},"properties":{"IDRECEIVER":20,"PERIOD":"D","LW63":57.230747,"LW500":56.840015,"LW1000":56.80293,"LW8000":56.27965,"LAEQ":60.174553,"LEQ":62.821995}},{"type":"Feature","geometry":{"type":"Point","coordinates":[5.0,7.0,1.6]},"properties":{"IDRECEIVER":20,"PERIOD":"DEN","LW63":54.220448,"LW500":53.829716,"LW1000":53.79263,"LW8000":53.269352,"LAEQ":57.164253,"LEQ":59.811695}},{"type":"Feature","geometry":{"type":"Point","coordinates":[6.732050807568878,4.0,1.6]},"properties":{"IDRECEIVER":16,"PERIOD":"D","LW63":57.484627,"LW500":56.873093,"LW1000":56.83917,"LW8000":56.323997,"LAEQ":60.212933,"LEQ":62.920383}},{"type":"Feature","geometry":{"type":"Point","coordinates":[6.732050807568878,4.0,1.6]},"properties":{"IDRECEIVER":16,"PERIOD":"DEN","LW63":54.474327,"LW500":53.862793,"LW1000":53.82887,"LW8000":53.313698,"LAEQ":57.202633,"LEQ":59.910084}},{"type":"Feature","geometry":{"type":"Point","coordinates":[4.0,3.2679491924311224,1.6]},"properties":{"IDRECEIVER":24,"PERIOD":"D","LW63":57.115215,"LW500":56.819595,"LW1000":56.79003,"LW8000":56.27176,"LAEQ":60.16145,"LEQ":62.780224}},{"type":"Feature","geometry":{"type":"Point","coordinates":[10.0,7.0,1.6]},"properties":{"IDRECEIVER":33,"PERIOD":"D","LW63":67.438324,"LW500":67.31148,"LW1000":67.27775,"LW8000":67.17864,"LAEQ":70.78717,"LEQ":73.32314}},{"type":"Feature","geometry":{"type":"Point","coordinates":[4.0,3.2679491924311224,1.6]},"properties":{"IDRECEIVER":24,"PERIOD":"DEN","LW63":54.104916,"LW500":53.809296,"LW1000":53.77973,"LW8000":53.26146,"LAEQ":57.15115,"LEQ":59.769924}},{"type":"Feature","geometry":{"type":"Point","coordinates":[10.0,7.0,1.6]},"properties":{"IDRECEIVER":33,"PERIOD":"DEN","LW63":64.428024,"LW500":64.30118,"LW1000":64.26745,"LW8000":64.16834,"LAEQ":67.77687,"LEQ":70.31284}},{"type":"Feature","geometry":{"type":"Point","coordinates":[8.267949192431123,3.999999999999999,1.6]},"properties":{"IDRECEIVER":14,"PERIOD":"D","LW63":67.30923,"LW500":67.16171,"LW1000":67.189026,"LW8000":67.64083,"LAEQ":70.88016,"LEQ":73.35003}},{"type":"Feature","geometry":{"type":"Point","coordinates":[8.267949192431123,3.999999999999999,1.6]},"properties":{"IDRECEIVER":14,"PERIOD":"DEN","LW63":64.29893,"LW500":64.15141,"LW1000":64.17873,"LW8000":64.63053,"LAEQ":67.86986,"LEQ":70.33973}},{"type":"Feature","geometry":{"type":"Point","coordinates":[11.0,3.267949192431123,1.6]},"properties":{"IDRECEIVER":26,"PERIOD":"D","LW63":66.7683,"LW500":66.64403,"LW1000":66.606155,"LW8000":66.390564,"LAEQ":70.07744,"LEQ":72.624985}},{"type":"Feature","geometry":{"type":"Point","coordinates":[11.0,3.267949192431123,1.6]},"properties":{"IDRECEIVER":26,"PERIOD":"DEN","LW63":63.758003,"LW500":63.633728,"LW1000":63.59586,"LW8000":63.38027,"LAEQ":67.06714,"LEQ":69.614685}}]}